EKRAN 20                
1 22210U 92074A   26064.91612898  .00000082  00000+0  00000+0 0  9999
2 22210  13.7481 345.0547 0003427 234.2397 324.3564  1.00273395 46330
GORIZONT 27             
1 22245U 92082A   26063.96781039  .00000098  00000+0  00000+0 0  9991
2 22245  13.7775 344.7478 0012402  19.3091 171.6964  1.00180389126076
COSMOS 2224             
1 22269U 92088A   26064.10947657 -.00000187  00000+0  00000+0 0  9990
2 22269  13.6842 348.7128 0006444 282.2225 270.9972  1.00254045121046
SL-12 R/B(2)            
1 22272U 92088D   26066.00757501 -.00000139  00000+0  00000+0 0  9999
2 22272  13.7844 349.1646 0008751 150.5306  17.7489  1.00077009 46266
TDRS 6                  
1 22314U 93003B   26066.12575171 -.00000296  00000+0  00000+0 0  9992
2 22314  14.1809 357.8150 0005470 200.0439 326.3296  1.00277756121381
RADUGA 29               
1 22557U 93013A   26065.81140344 -.00000187  00000+0  00000+0 0  9996
2 22557  13.8962 345.8772 0003017 189.3169   1.9818  1.00385504120653
HGS-4 (GALAXY 4)        
1 22694U 93039A   26065.76552947 -.00000125  00000+0  00000+0 0  9998
2 22694  14.5741 355.9194 0015876  31.7070 129.0292  1.00265223117979
HISPASAT 1B             
1 22723U 93048A   26064.72808745 -.00000339  00000+0  00000+0 0  9993
2 22723  13.6400  13.8541 0008452 339.1196 214.6391  0.99728487118803
INSAT-2B                
1 22724U 93048B   26065.95878316  .00000094  00000+0  00000+0 0  9998
2 22724  14.4199   3.3656 0016808 232.2042 303.2417  0.99976695119559
UFO 2 (USA 95)          
1 22787U 93056A   26066.01502838  .00000124  00000+0  00000+0 0  9991
2 22787  11.8592   4.1071 0008849 337.1886 217.5003  1.00274138117522
RADUGA 30               
1 22836U 93062A   26065.81149012 -.00000166  00000+0  00000+0 0  9998
2 22836  14.0622 347.9041 0005966 320.5548 229.0140  1.00277093 44970
SL-12 R/B(2)            
1 22839U 93062D   26065.07267240 -.00000070  00000+0  00000+0 0  9997
2 22839  14.0007 347.6402 0008132  84.0665 112.9817  1.00281311117822
SL-12 R/B(2)            
1 22883U 93069D   26065.56022139  .00000057  00000+0  00000+0 0  9997
2 22883  13.9090 347.4567 0003835  33.0137 166.8921  1.00470176118031
GORIZONT 29             
1 22907U 93072A   26065.69142034 -.00000376  00000+0  00000+0 0  9994
2 22907  14.0349 348.0885 0012065 354.8257 191.0115  1.00139552118146
SOLIDARIDAD 1           
1 22911U 93073A   26065.42507064 -.00000106  00000+0  00000+0 0  9990
2 22911  14.3500   3.1590 0009098 269.1154 298.1349  1.00279384116831
TELSTAR 401             
1 22927U 93077A   26065.41433875 -.00000074  00000+0  00000+0 0  9992
2 22927  14.4800 351.6486 0003851 165.7116  44.0349  1.00279873117547
GALS 1                  
1 22963U 94002A   26065.94517473  .00000122  00000+0  00000+0 0  9999
2 22963  14.5412 354.6311 0011536 242.8691 303.3942  1.00300937117682
