[{"OBJECT_NAME":"EKRAN 20","OBJECT_ID":"1992-074A","EPOCH":"2026-03-05T21:59:13.543872","MEAN_MOTION":1.00273395,"ECCENTRICITY":0.00034278,"INCLINATION":13.7481,"RA_OF_ASC_NODE":345.0547,"ARG_OF_PERICENTER":234.2397,"MEAN_ANOMALY":324.3564,"EPHEMERIS_TYPE":0,"CLASSIFICATION_TYPE":"U","NORAD_CAT_ID":22210,"ELEMENT_SET_NO":999,"REV_AT_EPOCH":4633,"BSTAR":0,"MEAN_MOTION_DOT":8.2e-7,"MEAN_MOTION_DDOT":0},{"OBJECT_NAME":"GORIZONT 27","OBJECT_ID":"1992-082A","EPOCH":"2026-03-04T23:13:38.817696","MEAN_MOTION":1.00180389,"ECCENTRICITY":0.00124029,"INCLINATION":13.7775,"RA_OF_ASC_NODE":344.7478,"ARG_OF_PERICENTER":19.3091,"MEAN_ANOMALY":171.6964,"EPHEMERIS_TYPE":0,"CLASSIFICATION_TYPE":"U","NORAD_CAT_ID":22245,"ELEMENT_SET_NO":999,"REV_AT_EPOCH":12607,"BSTAR":0,"MEAN_MOTION_DOT":9.8e-7,"MEAN_MOTION_DDOT":0},{"OBJECT_NAME":"COSMOS 2224","OBJECT_ID":"1992-088A","EPOCH":"2026-03-05T02:37:38.775648","MEAN_MOTION":1.00254045,"ECCENTRICITY":0.0006444,"INCLINATION":13.6842,"RA_OF_ASC_NODE":348.7128,"ARG_OF_PERICENTER":282.2225,"MEAN_ANOMALY":270.9972,"EPHEMERIS_TYPE":0,"CLASSIFICATION_TYPE":"U","NORAD_CAT_ID":22269,"ELEMENT_SET_NO":999,"REV_AT_EPOCH":12104,"BSTAR":0,"MEAN_MOTION_DOT":-1.87e-6,"MEAN_MOTION_DDOT":0},{"OBJECT_NAME":"SL-12 R/B(2)","OBJECT_ID":"1992-088D","EPOCH":"2026-03-07T00:10:54.480864","MEAN_MOTION":1.00077009,"ECCENTRICITY":0.0008751,"INCLINATION":13.7844,"RA_OF_ASC_NODE":349.1646,"ARG_OF_PERICENTER":150.5306,"MEAN_ANOMALY":17.7489,"EPHEMERIS_TYPE":0,"CLASSIFICATION_TYPE":"U","NORAD_CAT_ID":22272,"ELEMENT_SET_NO":999,"REV_AT_EPOCH":4626,"BSTAR":0,"MEAN_MOTION_DOT":-1.39e-6,"MEAN_MOTION_DDOT":0},{"OBJECT_NAME":"TDRS 6","OBJECT_ID":"1993-003B","EPOCH":"2026-03-07T03:01:04.947744","MEAN_MOTION":1.00277756,"ECCENTRICITY":0.000547,"INCLINATION":14.1809,"RA_OF_ASC_NODE":357.815,"ARG_OF_PERICENTER":200.0439,"MEAN_ANOMALY":326.3296,"EPHEMERIS_TYPE":0,"CLASSIFICATION_TYPE":"U","NORAD_CAT_ID":22314,"ELEMENT_SET_NO":999,"REV_AT_EPOCH":12138,"BSTAR":0,"MEAN_MOTION_DOT":-2.96e-6,"MEAN_MOTION_DDOT":0},{"OBJECT_NAME":"RADUGA 29","OBJECT_ID":"1993-013A","EPOCH":"2026-03-06T19:28:25.257216","MEAN_MOTION":1.00385504,"ECCENTRICITY":0.0003017,"INCLINATION":13.8962,"RA_OF_ASC_NODE":345.8772,"ARG_OF_PERICENTER":189.3169,"MEAN_ANOMALY":1.9818,"EPHEMERIS_TYPE":0,"CLASSIFICATION_TYPE":"U","NORAD_CAT_ID":22557,"ELEMENT_SET_NO":999,"REV_AT_EPOCH":12065,"BSTAR":0,"MEAN_MOTION_DOT":-1.87e-6,"MEAN_MOTION_DDOT":0},{"OBJECT_NAME":"HGS-4 (GALAXY 4)","OBJECT_ID":"1993-039A","EPOCH":"2026-03-06T18:22:21.746208","MEAN_MOTION":1.00265223,"ECCENTRICITY":0.0015876,"INCLINATION":14.5741,"RA_OF_ASC_NODE":355.9194,"ARG_OF_PERICENTER":31.707,"MEAN_ANOMALY":129.0292,"EPHEMERIS_TYPE":0,"CLASSIFICATION_TYPE":"U","NORAD_CAT_ID":22694,"ELEMENT_SET_NO":999,"REV_AT_EPOCH":11797,"BSTAR":0,"MEAN_MOTION_DOT":-1.25e-6,"MEAN_MOTION_DDOT":0},{"OBJECT_NAME":"HISPASAT 1B","OBJECT_ID":"1993-048A","EPOCH":"2026-03-05T17:28:26.755680","MEAN_MOTION":0.99728487,"ECCENTRICITY":0.00084526,"INCLINATION":13.64,"RA_OF_ASC_NODE":13.8541,"ARG_OF_PERICENTER":339.1196,"MEAN_ANOMALY":214.6391,"EPHEMERIS_TYPE":0,"CLASSIFICATION_TYPE":"U","NORAD_CAT_ID":22723,"ELEMENT_SET_NO":999,"REV_AT_EPOCH":11880,"BSTAR":0,"MEAN_MOTION_DOT":-3.39e-6,"MEAN_MOTION_DDOT":0},{"OBJECT_NAME":"INSAT-2B","OBJECT_ID":"1993-048B","EPOCH":"2026-03-06T23:00:38.865024","MEAN_MOTION":0.99976695,"ECCENTRICITY":0.0016808,"INCLINATION":14.4199,"RA_OF_ASC_NODE":3.3656,"ARG_OF_PERICENTER":232.2042,"MEAN_ANOMALY":303.2417,"EPHEMERIS_TYPE":0,"CLASSIFICATION_TYPE":"U","NORAD_CAT_ID":22724,"ELEMENT_SET_NO":999,"REV_AT_EPOCH":11955,"BSTAR":0,"MEAN_MOTION_DOT":9.4e-7,"MEAN_MOTION_DDOT":0},{"OBJECT_NAME":"UFO 2 (USA 95)","OBJECT_ID":"1993-056A","EPOCH":"2026-03-07T00:21:38.452032","MEAN_MOTION":1.00274138,"ECCENTRICITY":0.0008849,"INCLINATION":11.8592,"RA_OF_ASC_NODE":4.1071,"ARG_OF_PERICENTER":337.1886,"MEAN_ANOMALY":217.5003,"EPHEMERIS_TYPE":0,"CLASSIFICATION_TYPE":"U","NORAD_CAT_ID":22787,"ELEMENT_SET_NO":999,"REV_AT_EPOCH":11752,"BSTAR":0,"MEAN_MOTION_DOT":1.24e-6,"MEAN_MOTION_DDOT":0},{"OBJECT_NAME":"RADUGA 30","OBJECT_ID":"1993-062A","EPOCH":"2026-03-06T19:28:32.746368","MEAN_MOTION":1.00277093,"ECCENTRICITY":0.0005966,"INCLINATION":14.0622,"RA_OF_ASC_NODE":347.9041,"ARG_OF_PERICENTER":320.5548,"MEAN_ANOMALY":229.014,"EPHEMERIS_TYPE":0,"CLASSIFICATION_TYPE":"U","NORAD_CAT_ID":22836,"ELEMENT_SET_NO":999,"REV_AT_EPOCH":4497,"BSTAR":0,"MEAN_MOTION_DOT":-1.66e-6,"MEAN_MOTION_DDOT":0},{"OBJECT_NAME":"SL-12 R/B(2)","OBJECT_ID":"1993-062D","EPOCH":"2026-03-06T01:44:38.895360","MEAN_MOTION":1.00281311,"ECCENTRICITY":0.00081323,"INCLINATION":14.0007,"RA_OF_ASC_NODE":347.6402,"ARG_OF_PERICENTER":84.0665,"MEAN_ANOMALY":112.9817,"EPHEMERIS_TYPE":0,"CLASSIFICATION_TYPE":"U","NORAD_CAT_ID":22839,"ELEMENT_SET_NO":999,"REV_AT_EPOCH":11782,"BSTAR":0,"MEAN_MOTION_DOT":-7.0e-7,"MEAN_MOTION_DDOT":0},{"OBJECT_NAME":"SL-12 R/B(2)","OBJECT_ID":"1993-069D","EPOCH":"2026-03-06T13:26:43.128096","MEAN_MOTION":1.00470176,"ECCENTRICITY":0.0003835,"INCLINATION":13.909,"RA_OF_ASC_NODE":347.4567,"ARG_OF_PERICENTER":33.0137,"MEAN_ANOMALY":166.8921,"EPHEMERIS_TYPE":0,"CLASSIFICATION_TYPE":"U","NORAD_CAT_ID":22883,"ELEMENT_SET_NO":999,"REV_AT_EPOCH":11803,"BSTAR":0,"MEAN_MOTION_DOT":5.7e-7,"MEAN_MOTION_DDOT":0},{"OBJECT_NAME":"GORIZONT 29","OBJECT_ID":"1993-072A","EPOCH":"2026-03-06T16:35:38.717376","MEAN_MOTION":1.00139552,"ECCENTRICITY":0.0012065,"INCLINATION":14.0349,"RA_OF_ASC_NODE":348.0885,"ARG_OF_PERICENTER":354.8257,"MEAN_ANOMALY":191.0115,"EPHEMERIS_TYPE":0,"CLASSIFICATION_TYPE":"U","NORAD_CAT_ID":22907,"ELEMENT_SET_NO":999,"REV_AT_EPOCH":11814,"BSTAR":0,"MEAN_MOTION_DOT":-3.76e-6,"MEAN_MOTION_DDOT":0},{"OBJECT_NAME":"SOLIDARIDAD 1","OBJECT_ID":"1993-073A","EPOCH":"2026-03-06T10:12:06.103296","MEAN_MOTION":1.00279384,"ECCENTRICITY":0.0009098,"INCLINATION":14.35,"RA_OF_ASC_NODE":3.159,"ARG_OF_PERICENTER":269.1154,"MEAN_ANOMALY":298.1349,"EPHEMERIS_TYPE":0,"CLASSIFICATION_TYPE":"U","NORAD_CAT_ID":22911,"ELEMENT_SET_NO":999,"REV_AT_EPOCH":11683,"BSTAR":0,"MEAN_MOTION_DOT":-1.06e-6,"MEAN_MOTION_DDOT":0},{"OBJECT_NAME":"TELSTAR 401","OBJECT_ID":"1993-077A","EPOCH":"2026-03-06T09:56:38.868000","MEAN_MOTION":1.00279873,"ECCENTRICITY":0.00038517,"INCLINATION":14.48,"RA_OF_ASC_NODE":351.6486,"ARG_OF_PERICENTER":165.7116,"MEAN_ANOMALY":44.0349,"EPHEMERIS_TYPE":0,"CLASSIFICATION_TYPE":"U","NORAD_CAT_ID":22927,"ELEMENT_SET_NO":999,"REV_AT_EPOCH":11754,"BSTAR":0,"MEAN_MOTION_DOT":-7.4e-7,"MEAN_MOTION_DDOT":0},{"OBJECT_NAME":"GALS 1","OBJECT_ID":"1994-002A","EPOCH":"2026-03-06T22:41:03.096672","MEAN_MOTION":1.00300937,"ECCENTRICITY":0.0011536,"INCLINATION":14.5412,"RA_OF_ASC_NODE":354.6311,"ARG_OF_PERICENTER":242.8691,"MEAN_ANOMALY":303.3942,"EPHEMERIS_TYPE":0,"CLASSIFICATION_TYPE":"U","NORAD_CAT_ID":22963,"ELEMENT_SET_NO":999,"REV_AT_EPOCH":11768,"BSTAR":0,"MEAN_MOTION_DOT":1.22e-6,"MEAN_MOTION_DDOT":0}]
